#dP2021  4 15  6  0  0.00000000      96 __u+U ITR00 EXT  IAC
## 2153 367200.00000000   900.00000000 59319 0.2500000000000
+  116   C06C07C08C09C10C11C12C13C14C16C19C20C21C22C23C24C25
+        C26C27C28C29C30C32C33C34C35C36C37C38C39C40C41C42C43
+        C44C45C46E01E02E03E04E05E07E08E09E11E12E13E14E15E18
+        E19E21E24E25E26E27E30E31E33E36G01G02G03G04G05G06G07
+        G08G09G10G12G13G14G15G16G17G18G19G20G21G22G23G24G25
+        G26G27G28G29G30G31G32J01J02J03R01R02R03R04R05R07R08
+        R09R11R12R13R14R15R16R17R18R19R20R21R22R24  0  0  0
++        10  9 10  9 11 12 10  9  9 10  8  9 10 10  9  8  8
++        10  8  9 10  8  9  9 10  8  9  9 11 11 12 10  9 10
++         9  9 10  8  8  9  9  8  8  8  8  8  9  9  9  9  8
++         9  9  8  8  8  8  8  8  8  8  8  8  8  9  8  8  7
++         8  8  8  8  8  8  8  8  8  8  8  8  8  8  8  8  8
++         8  8  8  8  8  9  8  9 10 10 10  8  8  9  9  9 10
++         9  9  9 10  9 10  9  9  9  9 10  9  9  9  0  0  0
%c M  cc GPS ccc cccc cccc cccc cccc ccccc ccccc ccccc ccccc
%c cc cc ccc ccc cccc cccc cccc cccc ccccc ccccc ccccc ccccc
%f  0.0000000  0.000000000  0.00000000000  0.000000000000000
%f  0.0000000  0.000000000  0.00000000000  0.000000000000000
%i    0    0    0    0      0      0      0      0         0
%i    0    0    0    0      0      0      0      0         0
/* IAC                                ULTRA-RAPID PREDICTION
/* S/V CLOCKS ARE ALIGNED TO GNSS TIME                      
/* G:C1WC2W R:C1PC2P E:C1XC5X C:C2IC6I J:C1CC2S             
/* PCV:IGS14_2148 OL/AL:FES2004  NONE     YN ORB:CoN CLK:CoN
*  2021 04 15 20  0  0.00000000
PC06  -9887.860472  23322.824813  34216.211924    281.929151
PC07 -25424.937047  29584.882028 -16385.727898   -123.887327
PC08 -11926.200571  37106.304225 -15503.367168   -892.170381
PC09   5250.196553  30613.870661  29001.801392    593.297866
PC10 -11025.546986  30953.849592 -26449.215770    -56.079921
PC11   2951.749660 -17049.700259  21960.745341   -807.436157
PC12  17920.463008  -2430.256586  21281.406799    926.619498
PC13  -3604.370398  41819.787119  -2046.110187    222.908514
PC14  13930.254691 -17044.919831 -17085.169025    477.268103
PC16  -5756.102433  24813.814536  33750.278362   -785.474099
PC19  -3461.162674  17047.940148  21856.772358    799.928366
PC20 -20961.327809  14832.749184  10987.540427   -955.971622
PC21  26761.397894  -3532.961962   7051.881790   -944.067154
PC22  16551.357320   9479.809693  20368.458398   -965.233443
PC23  -9815.438352 -18030.281580  18903.344577   -888.609458
PC24  14065.029393 -20314.120284 -13005.813991   -815.105403
PC25   1894.605723 -27430.104836   4825.356694   -931.973785
PC26  16702.361327  -3020.585529 -22165.164288    920.551220
PC27 -22308.222289  -6166.998695 -15594.083716    515.980119
PC28 -19867.037258 -19572.508059   1006.291651    -85.857220
PC29   6572.797026  21202.756033 -16923.487634    379.291067
PC30 -11699.959722  10828.283019 -22908.542952    460.539939
PC32 -26752.259438   3781.514014  -6988.766247   -941.534758
PC33   3419.341206 -17076.833073 -21787.512408   -941.774681
PC34  11176.658849 -11356.012549  22900.708500   -695.135886
PC35  20388.968701  19039.239809  -1326.969426   -325.501503
PC36  -2787.351423  27400.417148  -4474.419645   -731.397633
PC37 -16656.910645   1573.314520  22345.527625   -897.208872
PC38 -10080.745196  39259.479691 -11401.208582    142.508155
PC39  -1326.744601  26210.444341  33054.566803     30.347977
PC40 -17213.654113  26510.984300 -27946.216488    151.479864
PC41 -16363.893404  -9585.818259 -20416.235283   -944.730339
PC42  21454.646923 -14542.722186 -10270.149787   -924.185307
PC43  -5927.741223 -21158.120887  17178.906107   -687.032208
PC44  22642.391599   5589.736967  15343.857286    139.395675
PC45   9816.311374  17886.927723 -19028.951235    414.725167
PC46 -13573.417107  21034.934833  12297.526320    314.720208
PE01 -11618.085949  25138.676495 -10447.024225  -1087.685461
PE02  11544.011005 -25144.658542  10536.661722    212.419381
PE03   4781.902951 -16507.515395 -24094.778785   -420.489074
PE04  16839.122790  15964.550757  18387.783541   -750.849205
PE05  23954.754471  -7362.819064 -15743.120575   -288.568702
PE07 -28951.237342  -5959.044819  -1673.563521   -526.012931
PE08 -17257.244242 -15667.264052 -18246.185920   6017.107992
PE09  28994.537778   5712.688678   1549.101433   5699.773177
PE11  18498.142150  10924.839395  20367.659742   6091.357207
PE12  12931.961931  26351.975246   3917.848447   5258.054653
PE13 -18471.370427 -11297.464085 -20171.714329    415.067268
PE14   1746.001336  21306.852548 -22716.361184  -1398.105116
PE15 -13015.007605 -26283.196929  -3943.954549    819.284189
PE18 -15072.731387 -17709.828286  11644.598363  -1529.571672
PE19  -7344.169467  15776.455942  23954.209629    253.094832
PE21 -21825.288530  18458.669998   7676.186546   -659.520092
PE24  19513.891815     77.825460 -22280.353146   -848.946935
PE25  21878.115130 -18328.021048  -7860.115018   -531.099904
PE26 -12838.757081  11112.477333 -24241.610364   1920.752557
PE27 -19797.761163    778.371244  21986.845985    -11.923025
PE30  -5307.889931 -17929.985019  22936.489123   3022.315672
PE31   6152.829733  17224.643852 -23269.359415   -480.197344
PE33    -75.884972  25778.558860 -14555.028538   -467.581929
PE36  13050.355007 -10296.973513  24494.365837   -194.157033
PG01  13852.199461  -5180.533181  21782.732315    715.343338
PG02 -13430.339171 -18740.348776 -12490.302291   -595.957111
PG03  22524.371804 -11656.940021   7610.674548   -137.738726
PG04  22670.913026  -1026.082296 -13839.450844   -191.972513
PG05 -18086.572612  -2455.551587 -19511.575291    -39.182789
PG06  -6066.313196 -25663.273347  -2828.879740      7.511314
PG07   8411.262501 -19100.619522 -15785.173680    123.035471
PG08  25596.393016   4837.176751   5949.886690    -17.629112
PG09  14428.968293  -9933.022357 -20032.473338   -339.136489
PG10  -5842.144561  19728.452713  16761.352164   -102.660235
PG12 -23100.921401   8051.892023   9904.498746    -28.242333
PG13 -22942.196187 -13459.723460  -1457.212050    120.334999
PG14   7621.482979 -19748.897817  16017.664082     95.790149
PG15 -25973.528557  -2210.071298   5626.446667   -155.952208
PG16  15314.990946   6822.626965 -20952.107559   -310.216048
PG17  -2715.006114 -16577.165251  20999.826045    426.924591
PG18  -6126.424254  22131.809763 -13299.970431    351.617743
PG19 -11653.772280 -17709.607956  15779.998911    -12.511524
PG20 -20077.326794  16331.595234  -5162.184245    523.139333
PG21  16344.263271   3237.871791  21491.549036    111.228388
PG22  20959.227144  -4400.742156  15785.219664   -637.129886
PG23 -15389.834741  20235.482170   7590.365389    113.294909
PG24 -15998.311303   -440.955056  20992.248846      8.495410
PG25 -19540.173334  17696.778199  -1840.641150    119.206089
PG26   7453.487773  14083.022935 -21280.713040     72.607063
PG27  22937.141227  12688.714033  -5549.590173   -113.313176
PG28   5225.250826 -18813.341090  18650.781588    586.259401
PG29 -14456.829790   8439.313195 -20678.599396   -330.592459
PG30    -73.459950 -26005.861721  -4696.582619   -413.288681
PG31   7564.972807  24527.340792  -5886.533737   -111.779868
PG32   5765.583893  16974.177627  19759.738599     22.086891
PJ01 -31140.741586  24442.545793  19514.335777   -366.095843
PJ02 -32867.124024  25764.030355  10470.896046      5.582296
PJ03 -23669.631466  17948.677954 -25341.322617     -3.463000
PR01 -19289.327085  -4931.559030 -15948.990409     77.933453
PR02 -24701.291726   4862.086606   3962.069994    474.925059
PR03 -13630.842223  10714.822340  18736.162606     34.264645
PR04   4868.949674  10220.889780  22890.228704     82.547641
PR05  20732.767856   4217.019583  14280.376438     70.039639
PR07  13148.498585 -10761.854038 -18999.670714    -42.539127
PR08  -4941.734873 -10289.325118 -22749.801313    -58.560253
PR09  14115.517944 -11481.672012 -17830.390363    -11.893987
PR11   1449.682412 -21313.761756  13937.954164      0.680591
PR12  -8940.307114  -6904.113747  22893.639833    221.127388
PR13 -13872.119348  11075.872532  18297.941170    -53.483259
PR14 -10801.456746  22982.881035   2489.655070     63.177293
PR15  -1446.676954  21108.952900 -14231.063620    104.352733
PR16   9767.744068   5603.657679 -22908.514310    -13.825412
PR17  -2090.264830  13484.942716 -21536.704127    416.371084
PR18  10245.365663  21195.518630  -9883.397880     73.304000
PR19  16448.959558  18471.074419   6246.581485   -139.916829
PR20  13705.272703   3040.860225  21316.533805    -47.363923
PR21   1135.827067 -14324.932322  21079.128075   -201.988079
PR22 -10742.024617 -21289.834469   8897.038407   -107.959115
PR24 -13745.426380  -1878.871753 -21391.568131     38.976287
EOF
